{
    "links": {
        "self": "http://www.neowsapp.com/rest/v1/neo/3836938?api_key=iIulBulltgU6a56xZRHN4H3l9WmuAYTsLGpBGhQ2"
    },
    "id": "3836938",
    "neo_reference_id": "3836938",
    "name": "(2018 XY5)",
    "designation": "2018 XY5",
    "nasa_jpl_url": "http://ssd.jpl.nasa.gov/sbdb.cgi?sstr=3836938",
    "absolute_magnitude_h": 25.6,
    "estimated_diameter": {
        "kilometers": {
            "estimated_diameter_min": 0.0201629919,
            "estimated_diameter_max": 0.0450858206
        },
        "meters": {
            "estimated_diameter_min": 20.1629919443,
            "estimated_diameter_max": 45.0858206172
        },
        "miles": {
            "estimated_diameter_min": 0.0125286985,
            "estimated_diameter_max": 0.0280150214
        },
        "feet": {
            "estimated_diameter_min": 66.1515504905,
            "estimated_diameter_max": 147.9193637137
        }
    },
    "is_potentially_hazardous_asteroid": false,
    "close_approach_data": [
        {
            "close_approach_date": "2016-12-31",
            "close_approach_date_full": "2016-Dec-31 14:44",
            "epoch_date_close_approach": 1483195440000,
            "relative_velocity": {
                "kilometers_per_second": "18.6818267665",
                "kilometers_per_hour": "67254.5763595213",
                "miles_per_hour": "41789.3782940592"
            },
            "miss_distance": {
                "astronomical": "0.4105384903",
                "lunar": "159.6994727267",
                "kilometers": "61415683.701895661",
                "miles": "38161936.2598596818"
            },
            "orbiting_body": "Earth"
        },
        {
            "close_approach_date": "2018-12-09",
            "close_approach_date_full": "2018-Dec-09 11:47",
            "epoch_date_close_approach": 1544356020000,
            "relative_velocity": {
                "kilometers_per_second": "9.2769387259",
                "kilometers_per_hour": "33396.9794130705",
                "miles_per_hour": "20751.5842358604"
            },
            "miss_distance": {
                "astronomical": "0.0535664324",
                "lunar": "20.8373422036",
                "kilometers": "8013424.190538988",
                "miles": "4979310.8982865144"
            },
            "orbiting_body": "Earth"
        }
    ],
    "orbital_data": {
        "orbit_id": "4",
        "orbit_determination_date": "2019-07-27 14:01:33",
        "first_observation_date": "2018-12-15",
        "last_observation_date": "2018-12-26",
        "data_arc_in_days": 11,
        "observations_used": 22,
        "orbit_uncertainty": "8",
        "minimum_orbit_intersection": ".0498896",
        "jupiter_tisserand_invariant": "4.340",
        "epoch_osculation": "2458468.5",
        "eccentricity": ".3579676893418114",
        "semi_major_axis": "1.556349363256217",
        "inclination": "12.66178691359081",
        "ascending_node_longitude": "262.0365615931927",
        "orbital_period": "709.1842229171507",
        "perihelion_distance": ".9992265778827897",
        "perihelion_argument": "146.7196523294122",
        "aphelion_distance": "2.113472148629644",
        "perihelion_time": "2458437.951121263808",
        "mean_anomaly": "15.50739002595366",
        "mean_motion": ".5076255059921947",
        "equinox": "J2000",
        "orbit_class": {
            "orbit_class_type": "APO",
            "orbit_class_description": "Near-Earth asteroid orbits which cross the Earth’s orbit similar to that of 1862 Apollo",
            "orbit_class_range": "a (semi-major axis) > 1.0 AU; q (perihelion) < 1.017 AU"
        }
    },
    "is_sentry_object": false
}